OBJECT_NAME,OBJECT_ID,EPOCH,MEAN_MOTION,ECCENTRICITY,INCLINATION,RA_OF_ASC_NODE,ARG_OF_PERICENTER,MEAN_ANOMALY,EPHEMERIS_TYPE,CLASSIFICATION_TYPE,NORAD_CAT_ID,ELEMENT_SET_NO,REV_AT_EPOCH,BSTAR,MEAN_MOTION_DOT,MEAN_MOTION_DDOT
STARLINK-37927,2026-135L,2026-07-04T13:10:44.647104,15.81060733,.00005547,97.2831,213.5777,4.6506,355.4767,0,U,69556,999,300,.21868155E-2,.445865E-2,0
STARLINK-37929,2026-135M,2026-07-05T01:18:47.306880,15.80899232,.00011085,97.2846,214.1144,77.0084,283.1308,0,U,69557,999,308,.1965319E-2,.395395E-2,0
STARLINK-37954,2026-135N,2026-07-05T01:17:01.950720,15.80915360,.00014583,97.2846,214.1163,84.7479,275.3956,0,U,69558,999,308,.16957139E-2,.339154E-2,0
STARLINK-37958,2026-135P,2026-07-04T00:00:02.998944,15.80773563,.0001423,97.2829,213.0090,88.1489,54.8962,0,U,69559,999,401,.55099E-3,.106489E-2,0
STARLINK-37950,2026-135Q,2026-07-05T01:13:16.574592,15.81404715,.0003041,97.2845,214.1194,153.7205,206.4219,0,U,69560,999,308,.68280437E-2,.1526409E-1,0
STARLINK-37952,2026-135R,2026-07-05T01:11:15.165312,15.80827285,.00013793,97.2831,214.1222,77.5706,282.5716,0,U,69561,999,308,.84626309E-3,.165147E-2,0
STARLINK-37935,2026-135S,2026-07-05T05:43:36.685056,15.80911304,.00007884,97.2834,214.3248,111.4540,248.6812,0,U,69562,999,311,.13944994E-2,.276828E-2,0
STARLINK-37936,2026-135T,2026-07-05T04:01:48.880704,15.80960470,.00007979,97.2835,214.2671,119.3960,240.7388,0,U,69563,999,310,-.80102168E-3,-.151928E-2,0
STARLINK-37932,2026-135U,2026-07-05T04:01:50.220768,15.80865407,.00030004,97.2825,214.2669,127.3814,232.7728,0,U,69564,999,310,.22251548E-2,.449826E-2,0
STARLINK-37916,2026-135V,2026-07-05T07:03:21.429792,15.80927711,.00013147,97.2836,214.4018,29.3990,330.7352,0,U,69565,999,312,.16532978E-2,.330523E-2,0
STARLINK-37909,2026-135W,2026-07-05T03:51:57.651552,15.80860304,.00014084,97.2833,214.2771,104.9265,255.2159,0,U,69566,999,310,.20123324E-2,.404564E-2,0
STARLINK-37934,2026-135X,2026-07-05T05:27:44.275392,15.80806911,.00013336,97.2828,214.3399,91.6644,268.4777,0,U,69567,999,311,.12552047E-2,.247123E-2,0
STARLINK-37938,2026-135Y,2026-07-05T05:24:12.635136,15.80911676,.0001359,97.2834,214.3435,9.3032,350.8261,0,U,69568,999,311,.28657835E-2,.590203E-2,0
STARLINK-37924,2026-135Z,2026-07-04T12:37:31.543392,15.80961394,.00015087,97.2835,213.6097,74.1589,285.9845,0,U,69569,999,300,.24547633E-2,.501445E-2,0
SHIJIAN-31 (SJ-31),2026-136A,2026-07-04T15:53:20.995584,1.92224731,.69406896,63.4828,354.2789,171.8019,212.4076,0,U,69570,999,42,0,-.56E-6,0
CZ-3B R/B,2026-136B,2026-07-05T03:24:43.725600,2.32320384,.73016149,63.4372,352.4873,171.4731,216.8918,0,U,69571,999,44,.57238173E-3,.393811E-2,.55578691E-4
GUOWANG OBJECT A,2026-137A,2026-07-04T06:19:59.342592,13.89813412,.00126449,49.9994,187.4054,281.9824,77.9657,0,U,69572,999,239,.46473611E-4,-.88E-6,0
GUOWANG OBJECT B,2026-137B,2026-07-04T06:15:47.203200,13.89804927,.00118447,50.0015,187.3886,281.1445,78.8122,0,U,69573,999,240,-.9786213E-5,-.158E-5,0
GUOWANG OBJECT C,2026-137C,2026-07-04T01:03:38.237184,13.89815737,.0011939,49.9957,188.2290,281.9173,78.0386,0,U,69574,999,237,-.12795E-4,-.162E-5,0
GUOWANG OBJECT D,2026-137D,2026-07-04T16:33:57.389184,13.89828409,.00111481,49.9953,185.6466,282.9923,76.9731,0,U,69575,999,246,-.26923089E-4,-.179E-5,0
GUOWANG OBJECT E,2026-137E,2026-07-04T06:11:16.714176,13.89825933,.00112472,50.0031,187.3789,284.2931,75.6718,0,U,69576,999,240,-.46854787E-4,-.204E-5,0
GUOWANG OBJECT F,2026-137F,2026-07-05T04:36:03.628224,13.89810111,.00108639,50.0022,183.6528,287.0549,72.9159,0,U,69577,999,253,-.52308229E-4,-.211E-5,0
GUOWANG OBJECT G,2026-137G,2026-07-05T04:34:44.497920,13.89794968,.00108443,49.9951,183.6297,286.9445,73.0264,0,U,69578,999,253,-.79352682E-4,-.244E-5,0
GUOWANG OBJECT H,2026-137H,2026-06-25T11:38:14.756064,13.92076941,.0010122,49.9967,222.2731,259.8752,100.1006,0,U,69579,999,118,.1427E-3,.37E-6,0
GUOWANG OBJECT J,2026-137J,2026-06-27T06:41:01.268160,13.91997107,.0011832,49.9961,215.0979,257.3150,102.6427,0,U,69580,999,143,.13174E-3,.22E-6,0
CZ-12 R/B,2026-137K,2026-07-05T05:02:25.874880,14.11692472,.00774618,49.9873,181.0237,175.5477,184.6135,0,U,69581,999,255,.43109713E-4,-.73E-6,0
CENTISPACE-1 GROUP 05 OBJECT A,2026-138A,2026-07-05T05:16:31.236672,14.15472083,.00106353,55.1390,214.5823,321.5253,38.4962,0,U,69582,999,257,-.93011566E-4,-.336E-5,0
CENTISPACE-1 GROUP 05 OBJECT B,2026-138B,2026-07-05T05:13:10.481088,14.15652987,.00096008,55.1387,214.5684,321.6327,38.3963,0,U,69583,999,257,-.11642461E-3,-.383E-5,0
CENTISPACE-1 GROUP 05 OBJECT C,2026-138C,2026-07-05T05:11:36.483072,14.15737146,.00095321,55.1394,214.5711,323.3348,36.6973,0,U,69584,999,257,-.11481386E-3,-.38E-5,0
CENTISPACE-1 GROUP 05 OBJECT D,2026-138D,2026-07-05T05:08:28.322880,14.15923833,.00090825,55.1395,214.5508,322.2819,37.7518,0,U,69585,999,257,-.15092428E-3,-.452E-5,0
