STARLINK-37927          
1 69556U 26135L   26185.54912786  .00445865  00000+0  21868-2 0  9990
2 69556  97.2831 213.5777 0000554   4.6506 355.4767 15.81060733  3004
STARLINK-37929          
1 69557U 26135M   26186.05471420  .00395395  00000+0  19653-2 0  9994
2 69557  97.2846 214.1144 0001108  77.0084 283.1308 15.80899232  3086
STARLINK-37954          
1 69558U 26135N   26186.05349480  .00339154  00000+0  16957-2 0  9990
2 69558  97.2846 214.1163 0001458  84.7479 275.3956 15.80915360  3082
STARLINK-37958          
1 69559U 26135P   26185.00003471  .00106489  00000+0  55099-3 0  9996
2 69559  97.2829 213.0090 0001423  88.1489  54.8962 15.80773563  4010
STARLINK-37950          
1 69560U 26135Q   26186.05088628  .01526409  00000+0  68280-2 0  9995
2 69560  97.2845 214.1194 0003041 153.7205 206.4219 15.81404715  3087
STARLINK-37952          
1 69561U 26135R   26186.04948108  .00165147  00000+0  84626-3 0  9993
2 69561  97.2831 214.1222 0001379  77.5706 282.5716 15.80827285  3083
STARLINK-37935          
1 69562U 26135S   26186.23861904  .00276828  00000+0  13945-2 0  9997
2 69562  97.2834 214.3248 0000788 111.4540 248.6812 15.80911304  3114
STARLINK-37936          
1 69563U 26135T   26186.16792686 -.00151928  00000+0 -80102-3 0  9995
2 69563  97.2835 214.2671 0000797 119.3960 240.7388 15.80960470  3106
STARLINK-37932          
1 69564U 26135U   26186.16794237  .00449826  00000+0  22252-2 0  9996
2 69564  97.2825 214.2669 0003000 127.3814 232.7728 15.80865407  3103
STARLINK-37916          
1 69565U 26135V   26186.29399803  .00330523  00000+0  16533-2 0  9999
2 69565  97.2836 214.4018 0001314  29.3990 330.7352 15.80927711  3129
STARLINK-37909          
1 69566U 26135W   26186.16108393  .00404564  00000+0  20123-2 0  9995
2 69566  97.2833 214.2771 0001408 104.9265 255.2159 15.80860304  3108
STARLINK-37934          
1 69567U 26135X   26186.22759578  .00247123  00000+0  12552-2 0  9993
2 69567  97.2828 214.3399 0001333  91.6644 268.4777 15.80806911  3117
STARLINK-37938          
1 69568U 26135Y   26186.22514624  .00590203  00000+0  28658-2 0  9999
2 69568  97.2834 214.3435 0001359   9.3032 350.8261 15.80911676  3110
STARLINK-37924          
1 69569U 26135Z   26185.52605953  .00501445  00000+0  24548-2 0  9992
2 69569  97.2835 213.6097 0001508  74.1589 285.9845 15.80961394  3007
SHIJIAN-31 (SJ-31)      
1 69570U 26136A   26185.66204856 -.00000056  00000+0  00000+0 0  9994
2 69570  63.4828 354.2789 6940689 171.8019 212.4076  1.92224731   426
CZ-3B R/B               
1 69571U 26136B   26186.14217275  .00393811  55579-4  57238-3 0  9996
2 69571  63.4372 352.4873 7301614 171.4731 216.8918  2.32320384   443
GUOWANG OBJECT A        
1 69572U 26137A   26185.26388128 -.00000088  00000+0  46474-4 0  9993
2 69572  49.9994 187.4054 0012644 281.9824  77.9657 13.89813412  2390
GUOWANG OBJECT B        
1 69573U 26137B   26185.26096300 -.00000158  00000+0 -97862-5 0  9999
2 69573  50.0015 187.3886 0011844 281.1445  78.8122 13.89804927  2402
GUOWANG OBJECT C        
1 69574U 26137C   26185.04419256 -.00000162  00000+0 -12795-4 0  9991
2 69574  49.9957 188.2290 0011939 281.9173  78.0386 13.89815737  2376
GUOWANG OBJECT D        
1 69575U 26137D   26185.69024756 -.00000179  00000+0 -26923-4 0  9996
2 69575  49.9953 185.6466 0011148 282.9923  76.9731 13.89828409  2466
GUOWANG OBJECT E        
1 69576U 26137E   26185.25783234 -.00000204  00000+0 -46855-4 0  9997
2 69576  50.0031 187.3789 0011247 284.2931  75.6718 13.89825933  2402
GUOWANG OBJECT F        
1 69577U 26137F   26186.19170866 -.00000211  00000+0 -52308-4 0  9991
2 69577  50.0022 183.6528 0010863 287.0549  72.9159 13.89810111  2537
GUOWANG OBJECT G        
1 69578U 26137G   26186.19079280 -.00000244  00000+0 -79353-4 0  9995
2 69578  49.9951 183.6297 0010844 286.9445  73.0264 13.89794968  2531
GUOWANG OBJECT H        
1 69579U 26137H   26176.48489301  .00000037  00000+0  14270-3 0  9990
2 69579  49.9967 222.2731 0010122 259.8752 100.1006 13.92076941  1185
GUOWANG OBJECT J        
1 69580U 26137J   26178.27848690  .00000022  00000+0  13174-3 0  9997
2 69580  49.9961 215.0979 0011832 257.3150 102.6427 13.91997107  1436
CZ-12 R/B               
1 69581U 26137K   26186.21002170 -.00000073  00000+0  43110-4 0  9997
2 69581  49.9873 181.0237 0077461 175.5477 184.6135 14.11692472  2551
CENTISPACE-1 GROUP 05 O*
1 69582U 26138A   26186.21980598 -.00000336  00000+0 -93012-4 0  9997
2 69582  55.1390 214.5823 0010635 321.5253  38.4962 14.15472083  2577
CENTISPACE-1 GROUP 05 O*
1 69583U 26138B   26186.21748242 -.00000383  00000+0 -11642-3 0  9996
2 69583  55.1387 214.5684 0009600 321.6327  38.3963 14.15652987  2575
CENTISPACE-1 GROUP 05 O*
1 69584U 26138C   26186.21639448 -.00000380  00000+0 -11481-3 0  9992
2 69584  55.1394 214.5711 0009532 323.3348  36.6973 14.15737146  2574
CENTISPACE-1 GROUP 05 O*
1 69585U 26138D   26186.21421670 -.00000452  00000+0 -15092-3 0  9991
2 69585  55.1395 214.5508 0009082 322.2819  37.7518 14.15923833  2578
